LANDSAT 9               
1 49260U 21088A   24073.17132822  .00000522  00000+0  12594-3 0  9994
2 49260  98.1960 144.3811 0001460  96.3415 263.7950 14.57119666130706
